OBJECT_NAME,OBJECT_ID,EPOCH,MEAN_MOTION,ECCENTRICITY,INCLINATION,RA_OF_ASC_NODE,ARG_OF_PERICENTER,MEAN_ANOMALY,EPHEMERIS_TYPE,CLASSIFICATION_TYPE,NORAD_CAT_ID,ELEMENT_SET_NO,REV_AT_EPOCH,BSTAR,MEAN_MOTION_DOT,MEAN_MOTION_DDOT
GPS BIIR-5  (PRN 22),2000-040A,2026-06-16T06:31:09.035904,2.00557621,.01210414,54.8514,215.1986,302.4691,40.2815,0,U,26407,999,18992,0,.55E-6,0
GPS BIIR-8  (PRN 16),2003-005A,2026-06-15T05:00:38.140128,2.00560631,.01479411,54.8824,215.0476,53.0894,18.2168,0,U,27663,999,17127,0,.7E-6,0
GPS BIIR-11 (PRN 19),2004-009A,2026-06-15T23:43:23.642976,2.00554677,.01161,54.8308,275.7357,173.0180,254.4247,0,U,28190,999,16292,0,-.3E-6,0
GPS BIIR-13 (PRN 02),2004-045A,2026-06-16T07:55:14.464992,2.00555740,.01698505,55.1357,324.9303,316.3830,62.6166,0,U,28474,999,15841,0,-.83E-6,0
GPS BIIRM-1 (PRN 17),2005-038A,2026-06-15T10:18:05.521248,2.00565706,.01278482,54.8795,273.2485,296.1414,116.0961,0,U,28874,999,15180,0,-.24E-6,0
INMARSAT 4-F2 (SOUTHPAN/PRN 122),2005-044A,2026-06-15T08:41:51.880992,1.00270350,.00027898,5.0924,43.7023,34.6752,99.2253,0,U,28899,999,7550,0,-.261E-5,0
GPS BIIRM-2 (PRN 31),2006-042A,2026-06-16T03:52:12.170208,2.00569850,.01066215,54.7106,151.3797,54.3899,64.8638,0,U,29486,999,14437,0,.48E-6,0
GPS BIIRM-3 (PRN 12),2006-052A,2026-06-14T22:12:41.249952,2.00557951,.00852251,54.9350,214.0959,90.8312,270.2366,0,U,29601,999,14336,0,.74E-6,0
GPS BIIRM-4 (PRN 15),2007-047A,2026-06-15T05:31:48.321696,2.00555244,.01667065,54.0939,80.1463,87.3419,274.5656,0,U,32260,999,13677,0,-.38E-6,0
COSMOS 2433 (720),2007-052A,2026-06-14T13:39:49.572000,2.13104181,.00023812,65.5783,316.0222,192.9273,167.0511,0,U,32275,999,14500,0,-.54E-6,0
COSMOS 2432 (719),2007-052B,2026-06-16T01:13:33.623040,2.13103070,.00077011,65.5948,316.0998,331.6849,28.9364,0,U,32276,999,14506,0,-.55E-6,0
GPS BIIRM-5 (PRN 29),2007-062A,2026-06-15T12:54:24.897024,2.00559947,.00356923,55.0330,274.2190,165.1872,184.0572,0,U,32384,999,13547,0,-.26E-6,0
COSMOS 2434 (721),2007-065A,2026-06-13T01:36:38.055168,2.13101303,.00011522,64.3199,192.0547,331.0720,206.3088,0,U,32393,999,14368,0,.117E-5,0
COSMOS 2436 (723),2007-065C,2026-06-13T06:12:49.161312,2.13100224,.0017212,64.3263,192.1203,354.2143,102.6396,0,U,32395,999,14364,0,.116E-5,0
GPS BIIRM-6 (PRN 07),2008-012A,2026-06-16T03:20:11.636448,2.00572340,.02112631,54.4973,149.9665,247.8341,109.8871,0,U,32711,999,13373,0,.46E-6,0
GPS BIIRM-8 (PRN 05),2009-043A,2026-06-16T06:48:23.933376,2.00554227,.00537676,56.2097,27.4871,83.1336,31.1253,0,U,35752,999,12334,0,-.73E-6,0
COSMOS 2456 (730),2009-070A,2026-06-16T03:42:15.751008,2.13103756,.00046558,65.0107,71.0074,330.9231,213.0207,0,U,36111,999,12840,0,-.23E-6,0
COSMOS 2457 (733),2009-070B,2026-06-15T12:18:56.267136,2.13101186,.00027837,64.9957,70.8735,123.8040,55.6549,0,U,36112,999,12839,0,-.25E-6,0
COSMOS 2460 (732),2010-007C,2026-06-13T20:48:05.350176,2.13101719,.00021218,65.4226,314.5793,106.9290,251.4243,0,U,36402,999,12665,0,-.52E-6,0
GPS BIIF-1  (PRN 25),2010-022A,2026-06-15T23:09:04.946976,2.00562301,.0126308,54.2702,208.6113,66.1175,296.4555,0,U,36585,999,11757,0,.63E-6,0
BEIDOU-2 IGSO-1 (C06),2010-036A,2026-06-15T22:07:28.195104,1.00272283,.00592987,54.3019,162.9711,225.1772,315.5729,0,U,36828,999,5808,0,-.73E-6,0
BEIDOU-2 G4 (C04),2010-057A,2026-06-16T01:03:49.023360,1.00270712,.00052891,3.6435,68.9483,196.8372,174.4901,0,U,37210,999,5728,0,-.115E-5,0
BEIDOU-2 IGSO-2 (C07),2010-068A,2026-06-15T20:29:59.130240,1.00282881,.0055907,47.5513,271.8488,212.6889,194.9404,0,U,37256,999,5678,0,-.214E-5,0
BEIDOU-2 IGSO-3 (C08),2011-013A,2026-06-14T14:04:06.536928,1.00267759,.00343713,62.4034,40.1764,184.2029,357.3112,0,U,37384,999,5563,0,-.189E-5,0
GSAT-8 (GAGAN/PRN 127),2011-022A,2026-06-16T01:17:55.703616,1.00273146,.00023431,2.1285,81.8356,203.1188,53.9415,0,U,37605,999,5320,0,.83E-6,0
BEIDOU-2 IGSO-4 (C09),2011-038A,2026-06-15T20:51:21.962016,1.00285205,.01595433,54.5998,165.6847,231.3979,273.2630,0,U,37763,999,5463,0,.29E-6,0
GSAT0101 (GALILEO-PFM),2011-060A,2026-06-12T17:48:57.349152,1.70475562,.00031174,56.9957,341.8816,51.3749,308.6629,0,U,37846,999,9104,0,-.71E-6,0
GSAT0102 (GALILEO-FM2),2011-060B,2026-06-15T14:11:42.824832,1.70475803,.00031675,56.9958,341.8048,14.2663,339.9688,0,U,37847,999,9109,0,-.84E-6,0
COSMOS 2476 (744),2011-064A,2026-06-16T05:20:29.603040,2.13103854,.00226791,65.2693,72.9043,238.7506,265.8553,0,U,37867,999,11374,0,-.21E-6,0
COSMOS 2477 (745),2011-064B,2026-06-13T04:09:58.519008,2.13103103,.00198843,65.2740,73.0865,240.5145,265.3672,0,U,37868,999,11367,0,-.31E-6,0
COSMOS 2475 (743),2011-064C,2026-06-13T05:06:46.528128,2.13101955,.00255895,65.2809,73.1067,253.3203,237.9576,0,U,37869,999,11368,0,-.31E-6,0
