{
  "version": 1,
  "fetchedAt": "2026-06-16T15:59:31.869Z",
  "source": "celestrak-gp",
  "counts": {
    "station": 25,
    "satellite": 400,
    "debris": 111
  },
  "objects": [
    {
      "id": "26407",
      "name": "GPS BIIR-5  (PRN 22)",
      "noradId": 26407,
      "line1": "1 26407U 00040A   26167.27163236  .00000055  00000+0  00000+0 0  9993",
      "line2": "2 26407  54.8514 215.1986 0121041 302.4691  40.2815  2.00557621189921",
      "category": "satellite"
    },
    {
      "id": "27663",
      "name": "GPS BIIR-8  (PRN 16)",
      "noradId": 27663,
      "line1": "1 27663U 03005A   26166.20877477  .00000070  00000+0  00000+0 0  9990",
      "line2": "2 27663  54.8824 215.0476 0147941  53.0894  18.2168  2.00560631171274",
      "category": "satellite"
    },
    {
      "id": "28190",
      "name": "GPS BIIR-11 (PRN 19)",
      "noradId": 28190,
      "line1": "1 28190U 04009A   26166.98846809 -.00000030  00000+0  00000+0 0  9998",
      "line2": "2 28190  54.8308 275.7357 0116100 173.0180 254.4247  2.00554677162929",
      "category": "satellite"
    },
    {
      "id": "28474",
      "name": "GPS BIIR-13 (PRN 02)",
      "noradId": 28474,
      "line1": "1 28474U 04045A   26167.33002853 -.00000083  00000+0  00000+0 0  9994",
      "line2": "2 28474  55.1357 324.9303 0169850 316.3830  62.6166  2.00555740158414",
      "category": "satellite"
    },
    {
      "id": "28874",
      "name": "GPS BIIRM-1 (PRN 17)",
      "noradId": 28874,
      "line1": "1 28874U 05038A   26166.42923057 -.00000024  00000+0  00000+0 0  9993",
      "line2": "2 28874  54.8795 273.2485 0127848 296.1414 116.0961  2.00565706151807",
      "category": "satellite"
    },
    {
      "id": "28899",
      "name": "INMARSAT 4-F2 (SOUTHPA*)",
      "noradId": 28899,
      "line1": "1 28899U 05044A   26166.36240603 -.00000261  00000+0  00000+0 0  9992",
      "line2": "2 28899   5.0924  43.7023 0002789  34.6752  99.2253  1.00270350 75505",
      "category": "satellite"
    },
    {
      "id": "29486",
      "name": "GPS BIIRM-2 (PRN 31)",
      "noradId": 29486,
      "line1": "1 29486U 06042A   26167.16125197  .00000048  00000+0  00000+0 0  9995",
      "line2": "2 29486  54.7106 151.3797 0106621  54.3899  64.8638  2.00569850144370",
      "category": "satellite"
    },
    {
      "id": "29601",
      "name": "GPS BIIRM-3 (PRN 12)",
      "noradId": 29601,
      "line1": "1 29601U 06052A   26165.92547743  .00000074  00000+0  00000+0 0  9991",
      "line2": "2 29601  54.9350 214.0959 0085225  90.8312 270.2366  2.00557951143368",
      "category": "satellite"
    },
    {
      "id": "32260",
      "name": "GPS BIIRM-4 (PRN 15)",
      "noradId": 32260,
      "line1": "1 32260U 07047A   26166.23042039 -.00000038  00000+0  00000+0 0  9995",
      "line2": "2 32260  54.0939  80.1463 0166706  87.3419 274.5656  2.00555244136771",
      "category": "satellite"
    },
    {
      "id": "32275",
      "name": "COSMOS 2433 (720)",
      "noradId": 32275,
      "line1": "1 32275U 07052A   26165.56932375 -.00000054  00000+0  00000+0 0  9991",
      "line2": "2 32275  65.5783 316.0222 0002381 192.9273 167.0511  2.13104181145000",
      "category": "satellite"
    },
    {
      "id": "32276",
      "name": "COSMOS 2432 (719)",
      "noradId": 32276,
      "line1": "1 32276U 07052B   26167.05108360 -.00000055  00000+0  00000+0 0  9998",
      "line2": "2 32276  65.5948 316.0998 0007701 331.6849  28.9364  2.13103070145069",
      "category": "satellite"
    },
    {
      "id": "32384",
      "name": "GPS BIIRM-5 (PRN 29)",
      "noradId": 32384,
      "line1": "1 32384U 07062A   26166.53778816 -.00000026  00000+0  00000+0 0  9998",
      "line2": "2 32384  55.0330 274.2190 0035692 165.1872 184.0572  2.00559947135476",
      "category": "satellite"
    },
    {
      "id": "32393",
      "name": "COSMOS 2434 (721)",
      "noradId": 32393,
      "line1": "1 32393U 07065A   26164.06710712  .00000117  00000+0  00000+0 0  9998",
      "line2": "2 32393  64.3199 192.0547 0001152 331.0720 206.3088  2.13101303143680",
      "category": "satellite"
    },
    {
      "id": "32395",
      "name": "COSMOS 2436 (723)",
      "noradId": 32395,
      "line1": "1 32395U 07065C   26164.25890233  .00000116  00000+0  00000+0 0  9997",
      "line2": "2 32395  64.3263 192.1203 0017212 354.2143 102.6396  2.13100224143641",
      "category": "satellite"
    },
    {
      "id": "32711",
      "name": "GPS BIIRM-6 (PRN 07)",
      "noradId": 32711,
      "line1": "1 32711U 08012A   26167.13902357  .00000046  00000+0  00000+0 0  9995",
      "line2": "2 32711  54.4973 149.9665 0211263 247.8341 109.8871  2.00572340133736",
      "category": "satellite"
    },
    {
      "id": "35752",
      "name": "GPS BIIRM-8 (PRN 05)",
      "noradId": 35752,
      "line1": "1 35752U 09043A   26167.28361034 -.00000073  00000+0  00000+0 0  9996",
      "line2": "2 35752  56.2097  27.4871 0053767  83.1336  31.1253  2.00554227123349",
      "category": "satellite"
    },
    {
      "id": "36111",
      "name": "COSMOS 2456 (730)",
      "noradId": 36111,
      "line1": "1 36111U 09070A   26167.15434897 -.00000023  00000+0  00000+0 0  9995",
      "line2": "2 36111  65.0107  71.0074 0004655 330.9231 213.0207  2.13103756128401",
      "category": "satellite"
    },
    {
      "id": "36112",
      "name": "COSMOS 2457 (733)",
      "noradId": 36112,
      "line1": "1 36112U 09070B   26166.51315124 -.00000025  00000+0  00000+0 0  9998",
      "line2": "2 36112  64.9957  70.8735 0002783 123.8040  55.6549  2.13101186128393",
      "category": "satellite"
    },
    {
      "id": "36402",
      "name": "COSMOS 2460 (732)",
      "noradId": 36402,
      "line1": "1 36402U 10007C   26164.86672859 -.00000052  00000+0  00000+0 0  9999",
      "line2": "2 36402  65.4226 314.5793 0002121 106.9290 251.4243  2.13101719126653",
      "category": "satellite"
    },
    {
      "id": "36585",
      "name": "GPS BIIF-1  (PRN 25)",
      "noradId": 36585,
      "line1": "1 36585U 10022A   26166.96464059  .00000063  00000+0  00000+0 0  9993",
      "line2": "2 36585  54.2702 208.6113 0126308  66.1175 296.4555  2.00562301117572",
      "category": "satellite"
    },
    {
      "id": "36828",
      "name": "BEIDOU-2 IGSO-1 (C06)",
      "noradId": 36828,
      "line1": "1 36828U 10036A   26166.92185411 -.00000073  00000+0  00000+0 0  9998",
      "line2": "2 36828  54.3019 162.9711 0059298 225.1772 315.5729  1.00272283 58085",
      "category": "satellite"
    },
    {
      "id": "37210",
      "name": "BEIDOU-2 G4 (C04)",
      "noradId": 37210,
      "line1": "1 37210U 10057A   26167.04431740 -.00000115  00000+0  00000+0 0  9997",
      "line2": "2 37210   3.6435  68.9483 0005289 196.8372 174.4901  1.00270712 57282",
      "category": "satellite"
    },
    {
      "id": "37256",
      "name": "BEIDOU-2 IGSO-2 (C07)",
      "noradId": 37256,
      "line1": "1 37256U 10068A   26166.85415660 -.00000214  00000+0  00000+0 0  9990",
      "line2": "2 37256  47.5513 271.8488 0055907 212.6889 194.9404  1.00282881 56787",
      "category": "satellite"
    },
    {
      "id": "37384",
      "name": "BEIDOU-2 IGSO-3 (C08)",
      "noradId": 37384,
      "line1": "1 37384U 11013A   26165.58618677 -.00000189  00000+0  00000+0 0  9996",
      "line2": "2 37384  62.4034  40.1764 0034371 184.2029 357.3112  1.00267759 55630",
      "category": "satellite"
    },
    {
      "id": "37605",
      "name": "GSAT-8 (GAGAN/PRN 127)",
      "noradId": 37605,
      "line1": "1 37605U 11022A   26167.05411694  .00000083  00000+0  00000+0 0  9998",
      "line2": "2 37605   2.1285  81.8356 0002343 203.1188  53.9415  1.00273146 53208",
      "category": "satellite"
    },
    {
      "id": "37763",
      "name": "BEIDOU-2 IGSO-4 (C09)",
      "noradId": 37763,
      "line1": "1 37763U 11038A   26166.86900419  .00000029  00000+0  00000+0 0  9996",
      "line2": "2 37763  54.5998 165.6847 0159543 231.3979 273.2630  1.00285205 54630",
      "category": "satellite"
    },
    {
      "id": "37846",
      "name": "GSAT0101 (GALILEO-PFM)",
      "noradId": 37846,
      "line1": "1 37846U 11060A   26163.74233043 -.00000071  00000+0  00000+0 0  9997",
      "line2": "2 37846  56.9957 341.8816 0003117  51.3749 308.6629  1.70475562 91048",
      "category": "satellite"
    },
    {
      "id": "37847",
      "name": "GSAT0102 (GALILEO-FM2)",
      "noradId": 37847,
      "line1": "1 37847U 11060B   26166.59146788 -.00000084  00000+0  00000+0 0  9997",
      "line2": "2 37847  56.9958 341.8048 0003167  14.2663 339.9688  1.70475803 91090",
      "category": "satellite"
    },
    {
      "id": "37867",
      "name": "COSMOS 2476 (744)",
      "noradId": 37867,
      "line1": "1 37867U 11064A   26167.22256485 -.00000021  00000+0  00000+0 0  9991",
      "line2": "2 37867  65.2693  72.9043 0022679 238.7506 265.8553  2.13103854113743",
      "category": "satellite"
    },
    {
      "id": "37868",
      "name": "COSMOS 2477 (745)",
      "noradId": 37868,
      "line1": "1 37868U 11064B   26164.17359397 -.00000031  00000+0  00000+0 0  9990",
      "line2": "2 37868  65.2740  73.0865 0019884 240.5145 265.3672  2.13103103113671",
      "category": "satellite"
    },
    {
      "id": "37869",
      "name": "COSMOS 2475 (743)",
      "noradId": 37869,
      "line1": "1 37869U 11064C   26164.21303852 -.00000031  00000+0  00000+0 0  9991",
      "line2": "2 37869  65.2809  73.1067 0025589 253.3203 237.9576  2.13101955113681",
      "category": "satellite"
    }
  ]
}